RASSVET 1-6
1 59781U 24092J   26002.18457855  .00000446  00000-0  18360-3 0  9995
2 59781  98.6527 121.5989 0011721 342.9463  17.1325 14.31755203 85145
SITRO-AIS-55
1 59809U 24092K   26002.14939265  .00030417  00000-0  10542-2 0  9996
2 59809  97.6375 129.3115 0009058  24.0590 336.1071 15.29741809 89794
MESAT-1
1 60209U 24125G   26002.10029970  .00052135  00000-0  99823-3 0  9999
2 60209  97.2506 217.5047 0015549 105.4827 254.8142 15.47751516 83756
ISTSAT-1
1 60238U 24128D   26002.21318536  .00012129  00000-0  75212-3 0  9990
2 60238  61.9901  71.8833 0053404  98.7681 261.9466 15.08929138 81393
IONOSFERA-M 01
1 61735U 24199A   26002.15241488  .00000141  00000-0  82809-4 0  9997
2 61735  98.7392 236.8427 0000065 169.0580 191.0599 14.22719422104096
IONOSFERA-M 02
1 61736U 24199B   26002.18703122  .00000144  00000-0  84210-4 0  9990
2 61736  98.7391 236.7893 0001889  84.1162 276.0231 14.22721680107224
SITRO-AIS-16
1 61737U 24199C   26002.20040442  .00006833  00000-0  60568-3 0  9993
2 61737  97.3339 211.8438 0004930 269.2270  90.8388 14.96502937106987
SITRO-AIS-15
1 61738U 24199D   26002.18683628  .00006806  00000-0  60303-3 0  9997
2 61738  97.3330 211.8627 0004819 268.1459  91.9212 14.96521422106980
SITRO-AIS-21
1 61739U 24199E   26002.19447113  .00004204  00000-0  39460-3 0  9996
2 61739  97.3342 210.8326 0011133 261.1324  98.8637 14.94420537106957
SITRO-AIS-22
1 61740U 24199F   26002.16302223  .00005845  00000-0  54034-3 0  9993
2 61740  97.3332 210.8816 0011509 262.9374  97.0539 14.94866589107104
SITRO-AIS-24
1 61741U 24199G   26002.16983509  .00007072  00000-0  65113-3 0  9990
2 61741  97.3334 210.8794 0011352 264.4251  95.5676 14.94961983107074
SITRO-AIS-23
1 61742U 24199H   26002.22040920  .00005476  00000-0  50620-3 0  9992
2 61742  97.3336 210.9579 0011272 264.0837  95.9100 14.94897555106962
SITRO-AIS-13
1 61743U 24199J   26002.20360472  .00006608  00000-0  58205-3 0  9993
2 61743  97.3340 211.9845 0004517 271.9777  88.0928 14.96763720107150
CSTP-2.11
1 61744U 24199K   26002.16266400  .00037487  00000-0  86476-3 0  9995
2 61744  97.3242 235.7033 0010427 148.8130 211.3738 15.42414097108699
POLYTECH UNIVERSE-5 (RS70S)
1 61745U 24199L   26002.17668718  .00051967  00000-0  10408-2 0  9995
2 61745  97.3217 236.5973 0007840 147.7591 212.4139 15.46547764111905
COLIBRI-S (RS67S)
1 61746U 24199M   26002.16053633  .00030538  00000-0  75908-3 0  9997
2 61746  97.3249 235.1072 0010439 151.8942 208.2869 15.40198729111797
POLYTECH UNIVERSE-4 (RS71S)
1 61747U 24199N   26002.16707012  .00027576  00000-0  71276-3 0  9997
2 61747  97.3250 234.7967 0010927 150.9591 209.2265 15.39019589111773
SITRO-AIS-44
1 61748U 24199P   26002.18898918  .00062547  00000-0  11563-2 0  9995
2 61748  97.3201 237.1438 0007340 144.8045 215.3692 15.48819536111942
VIZARD-ION (RS68S)
1 61749U 24199Q   26002.17566831  .00042572  00000-0  93140-3 0  9999
2 61749  97.3245 236.1507 0009761 145.9882 214.1993 15.43974533111863
MTUSI-1
1 61750U 24199R   26002.16561314  .00042846  00000-0  94874-3 0  9990
2 61750  97.3212 235.6962 0009351 156.1291 204.0392 15.43619818111842
VLADIVOSTOK-1
1 61751U 24199S   26002.20728925  .00016369  00000-0  50923-3 0  9997
2 61751  97.3237 232.9867 0010123 171.4982 188.6434 15.33336648111671
SITRO-AIS-14
1 61752U 24199T   26002.17286980  .00006393  00000-0  56598-3 0  9994
2 61752  97.3325 211.8789 0005134 269.4671  90.5963 14.96574942110281
HORS-3 (RS81S)
1 61753U 24199U   26002.17496024  .00041464  00000-0  91250-3 0  9999
2 61753  97.3220 235.8283 0008529 153.7972 206.3709 15.43818488111859
HORS-4 (RS82S)
1 61754U 24199V   26002.21522620  .00047289  00000-0  97276-3 0  9992
2 61754  97.3200 236.3477 0008543 151.6451 208.5264 15.45781083111890
SITRO-AIS-43
1 61755U 24199W   26002.16809480  .00060084  00000-0  11045-2 0  9996
2 61755  97.3196 237.1713 0007529 144.0596 216.1163 15.48991789111944
SITRO-AIS-42
1 61756U 24199X   26002.15452340  .00059720  00000-0  10932-2 0  9994
2 61756  97.3200 237.1947 0007292 144.3087 215.8653 15.49114721111949
HORIZON (RS59S)
1 61757U 24199Y   26002.14631266  .00098450  00000-0  13759-2 0  9993
2 61757  97.3201 238.6841 0008206 130.5609 229.6362 15.56475404112030
SITRO-AIS-20
1 61758U 24199Z   26002.18347267  .00006914  00000-0  60780-3 0  9994
2 61758  97.3323 211.9982 0004548 271.8600  88.2102 14.96825236110293
SITRO-AIS-19
1 61759U 24199AA  26002.18434367  .00006895  00000-0  60646-3 0  9992
2 61759  97.3324 211.9991 0004468 273.9364  86.1348 14.96806285110298
SITRO-AIS-41
1 61760U 24199AB  26002.10178919  .00058664  00000-0  10971-2 0  9990
2 61760  97.3205 236.9826 0007548 144.8747 215.3002 15.48504657111925
2024-199AC
1 61761U 24199AC  26002.06284293  .00043937  00000-0  93343-3 0  9991
2 61761  97.3201 236.0988 0007542 149.6048 210.5639 15.44857912111860
ARCTICSAT-1 (RS74S)
1 61762U 24199AD  26002.09980228  .00085183  00000-0  12773-2 0  9992
2 61762  97.3209 238.4409 0008502 128.8327 231.3688 15.54600491112011
SIT-HSE
1 61763U 24199AE  26002.19344334  .00030775  00000-0  67483-3 0  9992
2 61763  97.3224 236.5749 0006589 166.5245 193.6181 15.44003215111901
SIT-2086
1 61764U 24199AF  26002.17597323  .00032731  00000-0  71559-3 0  9992
2 61764  97.3216 236.5878 0008680 143.6577 216.5262 15.44061691108749
MORDOVIA-IOT (RS50S)
1 61765U 24199AG  26001.62687519  .00325252  00000-0  19182-2 0  9995
2 61765  97.3072 241.2178 0007277 109.9902 250.2149 15.77240062109011
RUZAEVKA-390 (RS44S)
1 61766U 24199AH  26002.09954723  .00165333  00000-0  15680-2 0  9993
2 61766  97.3147 240.4523 0007097 116.1449 244.0542 15.66364080109008
2024-199AJ (? AHMAT-2)
1 61767U 24199AJ  25363.38690139  .10165052  24539-5  11813-2 0  9994
2 61767  97.2732 240.1382 0004854  95.9620 264.2231 16.36835873108662
HOD-HOD
1 61768U 24199AK  26002.19104109  .00033309  00000-0  78320-3 0  9999
2 61768  97.3221 235.6911 0006640 156.3794 203.7759 15.41898236108696
KOSAR
1 61769U 24199AL  26002.17019740  .00039513  00000-0  87388-3 0  9991
2 61769  97.3216 236.1486 0006385 153.7810 206.3763 15.43698007108724
SITRO-AIS-48
1 61771U 24199AN  26002.17828395  .00049350  00000-0  10575-2 0  9991
2 61771  97.3186 235.5294 0009592 165.0539 195.0995 15.44557392108699
HYPERVIEW-1G (RS66S)
1 61772U 24199AP  26002.16021863  .00067381  00000-0  12009-2 0  9994
2 61772  97.3197 236.8750 0009913 152.9664 207.2106 15.49822117108778
SITRO-AIS-47
1 61773U 24199AQ  26002.20609365  .00048335  00000-0  10246-2 0  9998
2 61773  97.3187 235.6543 0009505 165.0606 195.0926 15.44883078108708
SITRO-AIS-46
1 61774U 24199AR  26002.18865060  .00052240  00000-0  10809-2 0  9997
2 61774  97.3182 235.8059 0009421 165.1697 194.9830 15.45577461108716
CSTP-2.2
1 61775U 24199AS  26002.18149985  .00024906  00000-0  65086-3 0  9995
2 61775  97.3234 234.2245 0017329 153.8662 206.3462 15.38606813108598
SITRO-AIS-40
1 61776U 24199AT  26001.92724962  .00059868  00000-0  12345-2 0  9995
2 61776  97.3183 235.5520 0009431 165.9557 194.1956 15.45644722111825
CSTP-2.1
1 61777U 24199AU  26002.16657859  .00025738  00000-0  66461-3 0  9991
2 61777  97.3234 234.2369 0016369 154.6129 205.5925 15.38984092108590
SITRO-AIS-39
1 61778U 24199AV  26002.15138315  .00045567  00000-0  98245-3 0  9999
2 61778  97.3187 235.4158 0009780 166.7243 193.4265 15.44392897108682
ALTAIR (RS65S)
1 61779U 24199AW  26002.17089027  .00016091  00000-0  50111-3 0  9997
2 61779  97.3255 232.7718 0013872 174.7715 185.3675 15.33261480111647
SITRO-AIS-37
1 61780U 24199AX  26002.17129672  .00047889  00000-0  10155-2 0  9992
2 61780  97.3194 235.5876 0009930 166.3311 193.8209 15.44869868108690
ASRTU-1 (RS64S/BJ2CR/AO-123)
1 61781U 24199AY  26002.17968001  .00018169  00000-0  57957-3 0  9991
2 61781  97.3239 232.4104 0014246 176.0726 184.0631 15.32463857108477
TUSUR GO (RS78S)
1 61782U 24199AZ  26002.15495628  .00102658  00000-0  14614-2 0  9999
2 61782  97.3157 237.7539 0008958 145.4006 214.7834 15.55953034108833
ZIMSAT-2 (Z2AS)
1 61783U 24199BA  25361.58198973  .00358820  00000-0  17952-2 0  9999
2 61783  97.3047 235.3597 0006529 129.8237 230.3607 15.80833029111345
SAMSAT-IONOSPHERE (RS75S)
1 61784U 24199BB  26002.16912229  .00045649  00000-0  98600-3 0  9997
2 61784  97.3213 235.5421 0011487 160.8794 199.2888 15.44319018111836
RTU MIREA-1 (RS51S)
1 61785U 24199BC  26002.17020399  .00054293  00000-0  11210-2 0  9993
2 61785  97.3206 235.8336 0011200 157.7725 202.4012 15.45611360108703
SITRO-AIS-38
1 61786U 24199BD  26002.15743731  .00027062  00000-0  63547-3 0  9999
2 61786  97.3198 235.2875 0011488 170.4044 189.7425 15.41933486108673
2024-199BE (? SWSU-60)
1 61787U 24199BE  26002.19915030  .00017127  00000-0  53847-3 0  9990
2 61787  97.3245 232.5637 0014180 175.1420 184.9963 15.32940666111637
SITRO-AIS-45
1 61788U 24199BF  26002.06280108  .00048419  00000-0  10380-2 0  9990
2 61788  97.3183 235.3579 0009764 167.0264 193.1238 15.44547816108651
SITRO-AIS-17
1 61789U 24199BG  26002.17588198  .00006389  00000-0  56190-3 0  9993
2 61789  97.3325 212.0308 0004905 278.7350  81.3317 14.96834672107199
SITRO-AIS-18
1 61790U 24199BH  26002.18455566  .00006872  00000-0  60465-3 0  9995
2 61790  97.3325 212.0017 0004488 276.2245  83.8466 14.96795814107196
HADES-R (SO-124)
1 62690U 25009CK  26001.74726436  .00379189  00000-0  33455-2 0  9996
2 62690  97.3838  90.2460 0002603 309.8772  50.2260 15.67530942 53905
OTP-2
1 63235U 25052AB  26001.70498870  .00016390  00000-0  73295-3 0  9993
2 63235  97.4067 256.7235 0007661  39.9877 320.1922 15.21357703 44536
HADES-ICM (SO-125)
1 63492U 25052BN  26002.15496052  .00110952  00000-0  25321-2 0  9993
2 63492  97.4066 260.9377 0009528  22.4189 337.7473 15.42419499 44844
IONOSFERA-M 03
1 64876U 25155A   26002.19675487  .00000160  00000-0  92567-4 0  9996
2 64876  98.5811 328.4867 0001485  26.3512 333.7741 14.21447193 22828
